APRIZESAT 2             
1 28366U 04025A   26201.68322889  .00000109  00000+0  46555-4 0  9991
2 28366  98.1049   5.7725 0106288 148.3876 212.3755 14.38049154156451
SAUDICOMSAT 1           
1 28369U 04025D   26201.97655039  .00000177  00000+0  51981-4 0  9996
2 28369  98.5779 213.0213 0030856 280.4848  79.2872 14.55496025169049
SAUDICOMSAT 2           
1 28370U 04025E   26201.93824607  .00000137  00000+0  47267-4 0  9991
2 28370  98.6644 215.1389 0055995 156.3643 204.0141 14.49996248164996
APRIZESAT 1             
1 28372U 04025G   26201.92806620  .00000146  00000+0  47986-4 0  9995
2 28372  98.6311 213.5727 0045561  53.7104 306.8285 14.51794128166805
NANOSAT-1               
1 28493U 04049B   26201.90132627  .00000625  00000+0  89543-4 0  9999
2 28493  98.2318 339.3955 0004211 166.6631 193.4692 14.80217669160435
SAUDICOMSAT 7           
1 31119U 07012C   26201.89542399  .00000365  00000+0  74317-4 0  9994
2 31119  98.3803 176.7214 0057030  90.8294 269.9444 14.66140581 27376
SAUDICOMSAT 6           
1 31121U 07012E   26201.88628432  .00000212  00000+0  50643-4 0  9996
2 31121  98.4122 170.0353 0070776 221.1411 138.4441 14.62587304 25118
SAUDICOMSAT 5           
1 31124U 07012H   26201.88975973  .00000419  00000+0  80838-4 0  9992
2 31124  98.3515 177.4563 0047874  21.1840 339.1333 14.68196924 28547
SAUDICOMSAT 3           
1 31125U 07012J   26201.92783396  .00000456  00000+0  82813-4 0  9990
2 31125  98.3169 178.0411 0037920 306.6630  53.1092 14.70755030 29785
SAUDICOMSAT 4           
1 31127U 07012L   26201.90587765  .00000267  00000+0  58656-4 0  9990
2 31127  98.4009 175.1687 0063929 151.9963 208.4703 14.64538600 26227
APRIZESAT 4             
1 35684U 09041D   26201.77021557  .00000352  00000+0  48747-4 0  9998
2 35684  98.1399 277.7585 0042578 211.0623 148.8072 14.83918396916344
APRIZESAT 3             
1 35686U 09041F   26201.93658523  .00000187  00000+0  21934-4 0  9992
2 35686  98.2107 356.7871 0060680 316.6675  42.9781 14.96317642921420
S-NET D                 
1 43186U 18014G   26201.71029078  .00002586  00000+0  13451-3 0  9998
2 43186  97.5322 106.2924 0006210 260.6706  99.3825 15.16946286463841
S-NET B                 
1 43187U 18014H   26201.72240569  .00002534  00000+0  13194-3 0  9997
2 43187  97.5327 106.2921 0006895 254.9755 105.0715 15.16915704463847
S-NET A                 
1 43188U 18014J   26201.70898413  .00002597  00000+0  13502-3 0  9995
2 43188  97.5337 106.4940 0006754 255.8122 104.2361 15.16954433463844
S-NET C                 
1 43189U 18014K   26201.72646462  .00002589  00000+0  13477-3 0  9995
2 43189  97.5352 106.5910 0008213 246.9409 113.0959 15.16906936462396
SALSAT                  
1 46495U 20068K   26201.95728298  .00005257  00000+0  18248-3 0  9999
2 46495  97.8866 207.0909 0009821 172.7459 187.3924 15.30221969320520
OOV-CUBE (TUBSAT-30)    
1 60240U 24128F   26201.92245923  .00001222  00000+0  10485-3 0  9993
2 60240  61.9942 107.9291 0040370 141.3117 219.0878 15.02888772111181
LPNTSAT-001 (IOD-1)     
1 68408U 26065A   26201.22011982  .00001315  00000+0  66560-4 0  9997
2 68408  97.3974  81.0264 0014730 247.0306 112.9374 15.18682969 17274
CHUANG XIN 26 (CX-26)   
1 69972U 26158A   26201.87718948 -.00000155  00000+0  21393-5 0  9992
2 69972  49.9830 256.4389 0004954 318.6414  41.4123 14.25124225  1514
